IRIDIUM 7 [-]           
1 24793U 97020B   23274.49603227  .00000669  00000+0  22875-3 0  9991
2 24793  86.3913  78.5471 0002200  84.1619 275.9828 14.34906954382281
IRIDIUM 5 [-]           
1 24795U 97020D   23274.53080576  .00008259  00000+0  83975-3 0  9995
2 24795  86.4013   9.1602 0128090 201.7532 157.8226 14.84658386392502
IRIDIUM 4 [-]           
1 24796U 97020E   23274.52878740  .00000782  00000+0  26366-3 0  9997
2 24796  86.3912  75.8240 0002263  90.2971 269.8485 14.35816945382805
IRIDIUM 914 [-]         
1 24836U 97030A   23274.76386399  .00000838  00000+0  26199-3 0  9999
2 24836  86.3878  86.1578 0003888 102.9311 257.2322 14.39611173379350
IRIDIUM 16 [-]          
1 24841U 97030F   23274.77657766  .00000674  00000+0  21856-3 0  9998
2 24841  86.3985 107.4776 0001729  21.4855 338.6415 14.37506659377526
IRIDIUM 911 [-]         
1 24842U 97030G   23274.58080295  .00000884  00000+0  24229-3 0  9995
2 24842  86.4411 106.9002 0015283  26.1679 334.0292 14.46021013384778
IRIDIUM 17 [-]          
1 24870U 97034B   23274.58199092  .00000615  00000+0  20246-3 0  9993
2 24870  86.3965 137.2259 0000439 107.8083 252.3162 14.36608475373875
IRIDIUM 920 [-]         
1 24871U 97034C   23274.56615508  .00000612  00000+0  18672-3 0  9994
2 24871  86.3939 117.9250 0011213 351.8031   8.2983 14.40321676376635
